<?xml version="1.0" encoding="UTF-8"?>
<ndm xmlns:xsi="http://www.w3.org/2001/XMLSchema-instance" xsi:noNamespaceSchemaLocation="https://sanaregistry.org/r/ndmxml_unqualified/ndmxml-2.0.0-master-2.0.xsd">
<omm id="CCSDS_OMM_VERS" version="2.0">
<header><CREATION_DATE/><ORIGINATOR/></header><body><segment><metadata><OBJECT_NAME>ORBCOMM FM05</OBJECT_NAME><OBJECT_ID>1997-084F</OBJECT_ID><CENTER_NAME>EARTH</CENTER_NAME><REF_FRAME>TEME</REF_FRAME><TIME_SYSTEM>UTC</TIME_SYSTEM><MEAN_ELEMENT_THEORY>SGP4</MEAN_ELEMENT_THEORY></metadata><data><meanElements><EPOCH>2024-10-31T14:50:23.994528</EPOCH><MEAN_MOTION>14.44239182</MEAN_MOTION><ECCENTRICITY>.0002789</ECCENTRICITY><INCLINATION>45.0163</INCLINATION><RA_OF_ASC_NODE>24.2387</RA_OF_ASC_NODE><ARG_OF_PERICENTER>208.3230</ARG_OF_PERICENTER><MEAN_ANOMALY>151.7470</MEAN_ANOMALY></meanElements><tleParameters><EPHEMERIS_TYPE>0</EPHEMERIS_TYPE><CLASSIFICATION_TYPE>U</CLASSIFICATION_TYPE><NORAD_CAT_ID>25117</NORAD_CAT_ID><ELEMENT_SET_NO>999</ELEMENT_SET_NO><REV_AT_EPOCH>40754</REV_AT_EPOCH><BSTAR>.24818E-2</BSTAR><MEAN_MOTION_DOT>.8473E-4</MEAN_MOTION_DOT><MEAN_MOTION_DDOT>0</MEAN_MOTION_DDOT></tleParameters></data></segment></body></omm>
<omm id="CCSDS_OMM_VERS" version="2.0">
<header><CREATION_DATE/><ORIGINATOR/></header><body><segment><metadata><OBJECT_NAME>ORBCOMM FM06</OBJECT_NAME><OBJECT_ID>1997-084G</OBJECT_ID><CENTER_NAME>EARTH</CENTER_NAME><REF_FRAME>TEME</REF_FRAME><TIME_SYSTEM>UTC</TIME_SYSTEM><MEAN_ELEMENT_THEORY>SGP4</MEAN_ELEMENT_THEORY></metadata><data><meanElements><EPOCH>2024-10-31T15:57:08.306208</EPOCH><MEAN_MOTION>14.44384404</MEAN_MOTION><ECCENTRICITY>.0002687</ECCENTRICITY><INCLINATION>45.0156</INCLINATION><RA_OF_ASC_NODE>24.0460</RA_OF_ASC_NODE><ARG_OF_PERICENTER>228.6983</ARG_OF_PERICENTER><MEAN_ANOMALY>285.9455</MEAN_ANOMALY></meanElements><tleParameters><EPHEMERIS_TYPE>0</EPHEMERIS_TYPE><CLASSIFICATION_TYPE>U</CLASSIFICATION_TYPE><NORAD_CAT_ID>25118</NORAD_CAT_ID><ELEMENT_SET_NO>999</ELEMENT_SET_NO><REV_AT_EPOCH>40846</REV_AT_EPOCH><BSTAR>.24748E-2</BSTAR><MEAN_MOTION_DOT>.8475E-4</MEAN_MOTION_DOT><MEAN_MOTION_DDOT>0</MEAN_MOTION_DDOT></tleParameters></data></segment></body></omm>
<omm id="CCSDS_OMM_VERS" version="2.0">
<header><CREATION_DATE/><ORIGINATOR/></header><body><segment><metadata><OBJECT_NAME>ORBCOMM FM07</OBJECT_NAME><OBJECT_ID>1997-084H</OBJECT_ID><CENTER_NAME>EARTH</CENTER_NAME><REF_FRAME>TEME</REF_FRAME><TIME_SYSTEM>UTC</TIME_SYSTEM><MEAN_ELEMENT_THEORY>SGP4</MEAN_ELEMENT_THEORY></metadata><data><meanElements><EPOCH>2024-10-31T15:19:04.361088</EPOCH><MEAN_MOTION>14.44264191</MEAN_MOTION><ECCENTRICITY>.0002919</ECCENTRICITY><INCLINATION>45.0151</INCLINATION><RA_OF_ASC_NODE>24.8354</RA_OF_ASC_NODE><ARG_OF_PERICENTER>192.0300</ARG_OF_PERICENTER><MEAN_ANOMALY>168.0481</MEAN_ANOMALY></meanElements><tleParameters><EPHEMERIS_TYPE>0</EPHEMERIS_TYPE><CLASSIFICATION_TYPE>U</CLASSIFICATION_TYPE><NORAD_CAT_ID>25119</NORAD_CAT_ID><ELEMENT_SET_NO>999</ELEMENT_SET_NO><REV_AT_EPOCH>40845</REV_AT_EPOCH><BSTAR>.21443E-2</BSTAR><MEAN_MOTION_DOT>.7304E-4</MEAN_MOTION_DOT><MEAN_MOTION_DDOT>0</MEAN_MOTION_DDOT></tleParameters></data></segment></body></omm>
<omm id="CCSDS_OMM_VERS" version="2.0">
<header><CREATION_DATE/><ORIGINATOR/></header><body><segment><metadata><OBJECT_NAME>ORBCOMM FM03</OBJECT_NAME><OBJECT_ID>1998-007B</OBJECT_ID><CENTER_NAME>EARTH</CENTER_NAME><REF_FRAME>TEME</REF_FRAME><TIME_SYSTEM>UTC</TIME_SYSTEM><MEAN_ELEMENT_THEORY>SGP4</MEAN_ELEMENT_THEORY></metadata><data><meanElements><EPOCH>2024-10-31T20:58:24.504672</EPOCH><MEAN_MOTION>14.33234667</MEAN_MOTION><ECCENTRICITY>.0048579</ECCENTRICITY><INCLINATION>107.9681</INCLINATION><RA_OF_ASC_NODE>26.9353</RA_OF_ASC_NODE><ARG_OF_PERICENTER>286.4570</ARG_OF_PERICENTER><MEAN_ANOMALY>73.1234</MEAN_ANOMALY></meanElements><tleParameters><EPHEMERIS_TYPE>0</EPHEMERIS_TYPE><CLASSIFICATION_TYPE>U</CLASSIFICATION_TYPE><NORAD_CAT_ID>25158</NORAD_CAT_ID><ELEMENT_SET_NO>999</ELEMENT_SET_NO><REV_AT_EPOCH>39131</REV_AT_EPOCH><BSTAR>.20125E-2</BSTAR><MEAN_MOTION_DOT>.5491E-4</MEAN_MOTION_DOT><MEAN_MOTION_DDOT>0</MEAN_MOTION_DDOT></tleParameters></data></segment></body></omm>
<omm id="CCSDS_OMM_VERS" version="2.0">
<header><CREATION_DATE/><ORIGINATOR/></header><body><segment><metadata><OBJECT_NAME>ORBCOMM FM04</OBJECT_NAME><OBJECT_ID>1998-007C</OBJECT_ID><CENTER_NAME>EARTH</CENTER_NAME><REF_FRAME>TEME</REF_FRAME><TIME_SYSTEM>UTC</TIME_SYSTEM><MEAN_ELEMENT_THEORY>SGP4</MEAN_ELEMENT_THEORY></metadata><data><meanElements><EPOCH>2024-10-31T19:55:00.831072</EPOCH><MEAN_MOTION>14.33503508</MEAN_MOTION><ECCENTRICITY>.0044301</ECCENTRICITY><INCLINATION>107.9665</INCLINATION><RA_OF_ASC_NODE>29.9045</RA_OF_ASC_NODE><ARG_OF_PERICENTER>284.0473</ARG_OF_PERICENTER><MEAN_ANOMALY>75.5744</MEAN_ANOMALY></meanElements><tleParameters><EPHEMERIS_TYPE>0</EPHEMERIS_TYPE><CLASSIFICATION_TYPE>U</CLASSIFICATION_TYPE><NORAD_CAT_ID>25159</NORAD_CAT_ID><ELEMENT_SET_NO>999</ELEMENT_SET_NO><REV_AT_EPOCH>39148</REV_AT_EPOCH><BSTAR>.20505E-2</BSTAR><MEAN_MOTION_DOT>.5615E-4</MEAN_MOTION_DOT><MEAN_MOTION_DDOT>0</MEAN_MOTION_DDOT></tleParameters></data></segment></body></omm>
<omm id="CCSDS_OMM_VERS" version="2.0">
<header><CREATION_DATE/><ORIGINATOR/></header><body><segment><metadata><OBJECT_NAME>ORBCOMM FM17</OBJECT_NAME><OBJECT_ID>1998-046A</OBJECT_ID><CENTER_NAME>EARTH</CENTER_NAME><REF_FRAME>TEME</REF_FRAME><TIME_SYSTEM>UTC</TIME_SYSTEM><MEAN_ELEMENT_THEORY>SGP4</MEAN_ELEMENT_THEORY></metadata><data><meanElements><EPOCH>2024-10-31T20:35:16.283040</EPOCH><MEAN_MOTION>14.34071847</MEAN_MOTION><ECCENTRICITY>.0000567</ECCENTRICITY><INCLINATION>44.9934</INCLINATION><RA_OF_ASC_NODE>254.4740</RA_OF_ASC_NODE><ARG_OF_PERICENTER>158.5020</ARG_OF_PERICENTER><MEAN_ANOMALY>201.5850</MEAN_ANOMALY></meanElements><tleParameters><EPHEMERIS_TYPE>0</EPHEMERIS_TYPE><CLASSIFICATION_TYPE>U</CLASSIFICATION_TYPE><NORAD_CAT_ID>25413</NORAD_CAT_ID><ELEMENT_SET_NO>999</ELEMENT_SET_NO><REV_AT_EPOCH>37038</REV_AT_EPOCH><BSTAR>.17677E-2</BSTAR><MEAN_MOTION_DOT>.4849E-4</MEAN_MOTION_DOT><MEAN_MOTION_DDOT>0</MEAN_MOTION_DDOT></tleParameters></data></segment></body></omm>
<omm id="CCSDS_OMM_VERS" version="2.0">
<header><CREATION_DATE/><ORIGINATOR/></header><body><segment><metadata><OBJECT_NAME>ORBCOMM FM18</OBJECT_NAME><OBJECT_ID>1998-046B</OBJECT_ID><CENTER_NAME>EARTH</CENTER_NAME><REF_FRAME>TEME</REF_FRAME><TIME_SYSTEM>UTC</TIME_SYSTEM><MEAN_ELEMENT_THEORY>SGP4</MEAN_ELEMENT_THEORY></metadata><data><meanElements><EPOCH>2024-10-31T17:00:43.932384</EPOCH><MEAN_MOTION>14.37154573</MEAN_MOTION><ECCENTRICITY>.0003854</ECCENTRICITY><INCLINATION>44.9916</INCLINATION><RA_OF_ASC_NODE>178.3841</RA_OF_ASC_NODE><ARG_OF_PERICENTER>204.2190</ARG_OF_PERICENTER><MEAN_ANOMALY>155.8477</MEAN_ANOMALY></meanElements><tleParameters><EPHEMERIS_TYPE>0</EPHEMERIS_TYPE><CLASSIFICATION_TYPE>U</CLASSIFICATION_TYPE><NORAD_CAT_ID>25414</NORAD_CAT_ID><ELEMENT_SET_NO>999</ELEMENT_SET_NO><REV_AT_EPOCH>37136</REV_AT_EPOCH><BSTAR>.20214E-2</BSTAR><MEAN_MOTION_DOT>.593E-4</MEAN_MOTION_DOT><MEAN_MOTION_DDOT>0</MEAN_MOTION_DDOT></tleParameters></data></segment></body></omm>
<omm id="CCSDS_OMM_VERS" version="2.0">
<header><CREATION_DATE/><ORIGINATOR/></header><body><segment><metadata><OBJECT_NAME>ORBCOMM FM19</OBJECT_NAME><OBJECT_ID>1998-046C</OBJECT_ID><CENTER_NAME>EARTH</CENTER_NAME><REF_FRAME>TEME</REF_FRAME><TIME_SYSTEM>UTC</TIME_SYSTEM><MEAN_ELEMENT_THEORY>SGP4</MEAN_ELEMENT_THEORY></metadata><data><meanElements><EPOCH>2024-10-31T16:53:15.429984</EPOCH><MEAN_MOTION>14.36979917</MEAN_MOTION><ECCENTRICITY>.0002706</ECCENTRICITY><INCLINATION>44.9928</INCLINATION><RA_OF_ASC_NODE>180.0589</RA_OF_ASC_NODE><ARG_OF_PERICENTER>193.5467</ARG_OF_PERICENTER><MEAN_ANOMALY>209.5698</MEAN_ANOMALY></meanElements><tleParameters><EPHEMERIS_TYPE>0</EPHEMERIS_TYPE><CLASSIFICATION_TYPE>U</CLASSIFICATION_TYPE><NORAD_CAT_ID>25415</NORAD_CAT_ID><ELEMENT_SET_NO>999</ELEMENT_SET_NO><REV_AT_EPOCH>37132</REV_AT_EPOCH><BSTAR>.20312E-2</BSTAR><MEAN_MOTION_DOT>.5938E-4</MEAN_MOTION_DOT><MEAN_MOTION_DDOT>0</MEAN_MOTION_DDOT></tleParameters></data></segment></body></omm>

</ndm>
