ORBCOMM FM05            
1 25117U 97084F   24305.61833327  .00008473  00000+0  24818-2 0  9997
2 25117  45.0163  24.2387 0002789 208.3230 151.7470 14.44239182407540
ORBCOMM FM06            
1 25118U 97084G   24305.66467947  .00008475  00000+0  24748-2 0  9998
2 25118  45.0156  24.0460 0002687 228.6983 285.9455 14.44384404408463
ORBCOMM FM07            
1 25119U 97084H   24305.63824492  .00007304  00000+0  21443-2 0  9997
2 25119  45.0151  24.8354 0002919 192.0300 168.0481 14.44264191408453
ORBCOMM FM03            
1 25158U 98007B   24305.87389473  .00005491  00000+0  20125-2 0  9998
2 25158 107.9681  26.9353 0048579 286.4570  73.1234 14.33234667391314
ORBCOMM FM04            
1 25159U 98007C   24305.82987073  .00005615  00000+0  20505-2 0  9994
2 25159 107.9665  29.9045 0044301 284.0473  75.5744 14.33503508391486
ORBCOMM FM17            
1 25413U 98046A   24305.85782735  .00004849  00000+0  17677-2 0  9995
2 25413  44.9934 254.4740 0000567 158.5020 201.5850 14.34071847370386
ORBCOMM FM18            
1 25414U 98046B   24305.70884181  .00005930  00000+0  20214-2 0  9991
2 25414  44.9916 178.3841 0003854 204.2190 155.8477 14.37154573371368
ORBCOMM FM19            
1 25415U 98046C   24305.70365081  .00005938  00000+0  20312-2 0  9992
2 25415  44.9928 180.0589 0002706 193.5467 209.5698 14.36979917371327
